start=new Date('2022-10-26T00:00:00.000Z').valueOf();
sats=[{"MEAN_ANOMALY":"318.8765","INCLINATION":"97.6528","PERIOD":"95.920","TLE_LINE2":"2 53055  97.6528 118.2501 0001325  41.2559 318.8765 15.01250193 16240","ARG_OF_PERICENTER":"41.2559","TIME_SYSTEM":"UTC","ELEMENT_SET_NO":"999","MEAN_MOTION_DOT":"-0.00000068","OBJECT_ID":"2022-077N","MEAN_ELEMENT_THEORY":"SGP4","FILE":"3633327","EPOCH":"2022-10-25T19:40:26.639328","REV_AT_EPOCH":"1624","CLASSIFICATION_TYPE":"U","DECAY_DATE":null,"OBJECT_NAME":"STARLINK-4338","COUNTRY_CODE":"US","RA_OF_ASC_NODE":"118.2501","SEMIMAJOR_AXIS":"6941.177","LAUNCH_DATE":"2022-07-11","NORAD_CAT_ID":"53055","MEAN_MOTION":"15.01250193","CENTER_NAME":"EARTH","TLE_LINE1":"1 53055U 22077N   22298.81975277 -.00000068  00000-0 -67484-6 0  9996","SITE":"AFWTR","ECCENTRICITY":"0.00013250","OBJECT_TYPE":"PAYLOAD","EPHEMERIS_TYPE":"0","MEAN_MOTION_DDOT":"0.0000000000000","PERIAPSIS":"562.122","GP_ID":"216157925","REF_FRAME":"TEME","APOAPSIS":"563.962","BSTAR":"-0.00000067484000","RCS_SIZE":"LARGE"},{"REV_AT_EPOCH":"1624","EPOCH":"2022-10-25T19:45:46.349568","DECAY_DATE":null,"OBJECT_NAME":"STARLINK-4314","CLASSIFICATION_TYPE":"U","OBJECT_ID":"2022-077P","FILE":"3633327","MEAN_ELEMENT_THEORY":"SGP4","TIME_SYSTEM":"UTC","ELEMENT_SET_NO":"999","MEAN_MOTION_DOT":"0.00000028","PERIOD":"95.919","TLE_LINE2":"2 53056  97.6534 118.2575 0001722  41.7540 318.3816 15.01260046 16245","INCLINATION":"97.6534","MEAN_ANOMALY":"318.3816","ARG_OF_PERICENTER":"41.7540","REF_FRAME":"TEME","GP_ID":"216157049","APOAPSIS":"564.207","PERIAPSIS":"561.816","RCS_SIZE":"LARGE","BSTAR":"0.00000675280000","MEAN_MOTION_DDOT":"0.0000000000000","ECCENTRICITY":"0.00017220","OBJECT_TYPE":"PAYLOAD","EPHEMERIS_TYPE":"0","LAUNCH_DATE":"2022-07-11","NORAD_CAT_ID":"53056","MEAN_MOTION":"15.01260046","CENTER_NAME":"EARTH","TLE_LINE1":"1 53056U 22077P   22298.82345312  .00000028  00000-0  67528-5 0  9991","SITE":"AFWTR","SEMIMAJOR_AXIS":"6941.147","COUNTRY_CODE":"US","RA_OF_ASC_NODE":"118.2575"},{"PERIAPSIS":"562.344","REF_FRAME":"TEME","GP_ID":"216157136","APOAPSIS":"563.682","BSTAR":"-0.00002999500000","RCS_SIZE":"LARGE","ECCENTRICITY":"0.00009640","OBJECT_TYPE":"PAYLOAD","EPHEMERIS_TYPE":"0","MEAN_MOTION_DDOT":"0.0000000000000","LAUNCH_DATE":"2022-07-11","NORAD_CAT_ID":"53057","MEAN_MOTION":"15.01259691","CENTER_NAME":"EARTH","TLE_LINE1":"1 53057U 22077Q   22298.81604106 -.00000444  00000-0 -29995-4 0  9999","SITE":"AFWTR","COUNTRY_CODE":"US","RA_OF_ASC_NODE":"118.2373","SEMIMAJOR_AXIS":"6941.148","EPOCH":"2022-10-25T19:35:05.947584","REV_AT_EPOCH":"1624","CLASSIFICATION_TYPE":"U","OBJECT_NAME":"STARLINK-4252","DECAY_DATE":null,"OBJECT_ID":"2022-077Q","MEAN_ELEMENT_THEORY":"SGP4","FILE":"3633327","TIME_SYSTEM":"UTC","ELEMENT_SET_NO":"999","MEAN_MOTION_DOT":"-0.00000444","INCLINATION":"97.6530","MEAN_ANOMALY":"281.4336","PERIOD":"95.919","TLE_LINE2":"2 53057  97.6530 118.2373 0000964  78.6997 281.4336 15.01259691 16241","ARG_OF_PERICENTER":"78.6997"},{"TLE_LINE1":"1 53058U 22077R   22298.75334713 -.00001551  00000-0 -11624-3 0  9996","SITE":"AFWTR","CENTER_NAME":"EARTH","MEAN_MOTION":"15.01251191","NORAD_CAT_ID":"53058","LAUNCH_DATE":"2022-07-11","RA_OF_ASC_NODE":"118.1851","COUNTRY_CODE":"US","SEMIMAJOR_AXIS":"6941.174","BSTAR":"-0.00011624000000","RCS_SIZE":"LARGE","PERIAPSIS":"562.282","APOAPSIS":"563.796","GP_ID":"216156894","REF_FRAME":"TEME","OBJECT_TYPE":"PAYLOAD","EPHEMERIS_TYPE":"0","ECCENTRICITY":"0.00010900","MEAN_MOTION_DDOT":"0.0000000000000","MEAN_MOTION_DOT":"-0.00001551","ELEMENT_SET_NO":"999","TIME_SYSTEM":"UTC","ARG_OF_PERICENTER":"58.9846","MEAN_ANOMALY":"301.1485","INCLINATION":"97.6529","TLE_LINE2":"2 53058  97.6529 118.1851 0001090  58.9846 301.1485 15.01251191 16236","PERIOD":"95.920","CLASSIFICATION_TYPE":"U","DECAY_DATE":null,"OBJECT_NAME":"STARLINK-4317","EPOCH":"2022-10-25T18:04:49.192032","REV_AT_EPOCH":"1623","MEAN_ELEMENT_THEORY":"SGP4","FILE":"3633327","OBJECT_ID":"2022-077R"},{"EPOCH":"2022-10-25T19:30:09.027072","REV_AT_EPOCH":"1624","CLASSIFICATION_TYPE":"U","DECAY_DATE":null,"OBJECT_NAME":"STARLINK-4320","OBJECT_ID":"2022-077S","MEAN_ELEMENT_THEORY":"SGP4","FILE":"3633327","TIME_SYSTEM":"UTC","ELEMENT_SET_NO":"999","MEAN_MOTION_DOT":"-0.00001045","INCLINATION":"97.6534","MEAN_ANOMALY":"236.7229","PERIOD":"95.920","TLE_LINE2":"2 53059  97.6534 118.2313 0001321 123.4122 236.7229 15.01254786 16242","ARG_OF_PERICENTER":"123.4122","PERIAPSIS":"562.111","REF_FRAME":"TEME","GP_ID":"216157644","APOAPSIS":"563.945","RCS_SIZE":"LARGE","BSTAR":"-0.00007680200000","ECCENTRICITY":"0.00013210","EPHEMERIS_TYPE":"0","OBJECT_TYPE":"PAYLOAD","MEAN_MOTION_DDOT":"0.0000000000000","LAUNCH_DATE":"2022-07-11","NORAD_CAT_ID":"53059","CENTER_NAME":"EARTH","MEAN_MOTION":"15.01254786","SITE":"AFWTR","TLE_LINE1":"1 53059U 22077S   22298.81260448 -.00001045  00000-0 -76802-4 0  9995","COUNTRY_CODE":"US","RA_OF_ASC_NODE":"118.2313","SEMIMAJOR_AXIS":"6941.163"},{"PERIAPSIS":"562.404","GP_ID":"216157467","REF_FRAME":"TEME","APOAPSIS":"563.664","BSTAR":"-0.00014070000000","RCS_SIZE":"LARGE","ECCENTRICITY":"0.00009080","EPHEMERIS_TYPE":"0","OBJECT_TYPE":"PAYLOAD","MEAN_MOTION_DDOT":"0.0000000000000","LAUNCH_DATE":"2022-07-11","NORAD_CAT_ID":"53060","CENTER_NAME":"EARTH","MEAN_MOTION":"15.01252772","TLE_LINE1":"1 53060U 22077T   22298.81790375 -.00001865  00000-0 -14070-3 0  9992","SITE":"AFWTR","COUNTRY_CODE":"US","RA_OF_ASC_NODE":"118.2402","SEMIMAJOR_AXIS":"6941.169","EPOCH":"2022-10-25T19:37:46.884000","REV_AT_EPOCH":"1624","CLASSIFICATION_TYPE":"U","OBJECT_NAME":"STARLINK-4305","DECAY_DATE":null,"OBJECT_ID":"2022-077T","MEAN_ELEMENT_THEORY":"SGP4","FILE":"3633327","TIME_SYSTEM":"UTC","ELEMENT_SET_NO":"999","MEAN_MOTION_DOT":"-0.00001865","INCLINATION":"97.6543","MEAN_ANOMALY":"333.8606","PERIOD":"95.920","TLE_LINE2":"2 53060  97.6543 118.2402 0000908  26.2664 333.8606 15.01252772 16245","ARG_OF_PERICENTER":"26.2664"},{"NORAD_CAT_ID":"53061","LAUNCH_DATE":"2022-07-11","SITE":"AFWTR","TLE_LINE1":"1 53061U 22077U   22298.74384513 -.00000739  00000-0 -52990-4 0  9991","CENTER_NAME":"EARTH","MEAN_MOTION":"15.01257190","SEMIMAJOR_AXIS":"6941.156","RA_OF_ASC_NODE":"118.1597","COUNTRY_CODE":"US","APOAPSIS":"564.048","GP_ID":"216156719","REF_FRAME":"TEME","PERIAPSIS":"561.993","BSTAR":"-0.00005299000000","RCS_SIZE":"LARGE","MEAN_MOTION_DDOT":"0.0000000000000","OBJECT_TYPE":"PAYLOAD","EPHEMERIS_TYPE":"0","ECCENTRICITY":"0.00014810","ELEMENT_SET_NO":"999","TIME_SYSTEM":"UTC","MEAN_MOTION_DOT":"-0.00000739","TLE_LINE2":"2 53061  97.6539 118.1597 0001481 132.0471 228.0880 15.01257190 16231","PERIOD":"95.920","INCLINATION":"97.6539","MEAN_ANOMALY":"228.0880","ARG_OF_PERICENTER":"132.0471","REV_AT_EPOCH":"1623","EPOCH":"2022-10-25T17:51:08.219232","OBJECT_NAME":"STARLINK-4308","DECAY_DATE":null,"CLASSIFICATION_TYPE":"U","OBJECT_ID":"2022-077U","FILE":"3633327","MEAN_ELEMENT_THEORY":"SGP4"},{"MEAN_ANOMALY":"237.9148","INCLINATION":"97.6539","TLE_LINE2":"2 53062  97.6539 118.2353 0001247 122.2197 237.9148 15.01252760 16244","PERIOD":"95.920","ARG_OF_PERICENTER":"122.2197","ELEMENT_SET_NO":"999","TIME_SYSTEM":"UTC","MEAN_MOTION_DOT":"-0.00001595","OBJECT_ID":"2022-077V","MEAN_ELEMENT_THEORY":"SGP4","FILE":"3633327","EPOCH":"2022-10-25T19:32:26.905056","REV_AT_EPOCH":"1624","CLASSIFICATION_TYPE":"U","DECAY_DATE":null,"OBJECT_NAME":"STARLINK-4311","RA_OF_ASC_NODE":"118.2353","COUNTRY_CODE":"US","SEMIMAJOR_AXIS":"6941.169","NORAD_CAT_ID":"53062","LAUNCH_DATE":"2022-07-11","SITE":"AFWTR","TLE_LINE1":"1 53062U 22077V   22298.81420029 -.00001595  00000-0 -11961-3 0  9996","CENTER_NAME":"EARTH","MEAN_MOTION":"15.01252760","EPHEMERIS_TYPE":"0","OBJECT_TYPE":"PAYLOAD","ECCENTRICITY":"0.00012470","MEAN_MOTION_DDOT":"0.0000000000000","PERIAPSIS":"562.169","APOAPSIS":"563.900","GP_ID":"216157312","REF_FRAME":"TEME","RCS_SIZE":"LARGE","BSTAR":"-0.00011961000000"},{"FILE":"3633327","MEAN_ELEMENT_THEORY":"SGP4","OBJECT_ID":"2022-077W","OBJECT_NAME":"STARLINK-4307","DECAY_DATE":null,"CLASSIFICATION_TYPE":"U","REV_AT_EPOCH":"1621","EPOCH":"2022-10-25T12:42:33.786144","ARG_OF_PERICENTER":"358.1597","PERIOD":"95.971","TLE_LINE2":"2 53063  97.6574 118.0813 0002162 358.1597   1.9619 15.00457830 16217","INCLINATION":"97.6574","MEAN_ANOMALY":"1.9619","MEAN_MOTION_DOT":"0.00000287","TIME_SYSTEM":"UTC","ELEMENT_SET_NO":"999","MEAN_MOTION_DDOT":"0.0000000000000","ECCENTRICITY":"0.00021620","OBJECT_TYPE":"PAYLOAD","EPHEMERIS_TYPE":"0","BSTAR":"0.00002748500000","RCS_SIZE":"LARGE","REF_FRAME":"TEME","GP_ID":"216157926","APOAPSIS":"566.987","PERIAPSIS":"563.984","SEMIMAJOR_AXIS":"6943.621","COUNTRY_CODE":"US","RA_OF_ASC_NODE":"118.0813","MEAN_MOTION":"15.00457830","CENTER_NAME":"EARTH","SITE":"AFWTR","TLE_LINE1":"1 53063U 22077W   22298.52955771  .00000287  00000-0  27485-4 0  9996","LAUNCH_DATE":"2022-07-11","NORAD_CAT_ID":"53063"},{"CLASSIFICATION_TYPE":"U","DECAY_DATE":null,"OBJECT_NAME":"STARLINK-4313","EPOCH":"2022-10-25T19:29:45.472704","REV_AT_EPOCH":"1624","MEAN_ELEMENT_THEORY":"SGP4","FILE":"3633327","OBJECT_ID":"2022-077X","MEAN_MOTION_DOT":"-0.00000472","TIME_SYSTEM":"UTC","ELEMENT_SET_NO":"999","ARG_OF_PERICENTER":"137.8016","MEAN_ANOMALY":"222.3337","INCLINATION":"97.6532","PERIOD":"95.919","TLE_LINE2":"2 53064  97.6532 118.2314 0001666 137.8016 222.3337 15.01262594 16247","BSTAR":"-0.00003218100000","RCS_SIZE":"LARGE","PERIAPSIS":"561.847","REF_FRAME":"TEME","GP_ID":"216157050","APOAPSIS":"564.160","ECCENTRICITY":"0.00016660","OBJECT_TYPE":"PAYLOAD","EPHEMERIS_TYPE":"0","MEAN_MOTION_DDOT":"0.0000000000000","CENTER_NAME":"EARTH","MEAN_MOTION":"15.01262594","TLE_LINE1":"1 53064U 22077X   22298.81233186 -.00000472  00000-0 -32181-4 0  9995","SITE":"AFWTR","LAUNCH_DATE":"2022-07-11","NORAD_CAT_ID":"53064","COUNTRY_CODE":"US","RA_OF_ASC_NODE":"118.2314","SEMIMAJOR_AXIS":"6941.139"}];
